start=new Date('2022-05-09T00:00:00.000Z').valueOf();
sats=[{"MEAN_ELEMENT_THEORY":"SGP4","NORAD_CAT_ID":"46082","CLASSIFICATION_TYPE":"U","COUNTRY_CODE":"US","SITE":"AFETR","FILE":"3435746","EPOCH":"2022-05-08T08:48:32.050368","APOAPSIS":"548.155","OBJECT_ID":"2020-055BH","SEMIMAJOR_AXIS":"6925.362","REF_FRAME":"TEME","PERIAPSIS":"546.299","ELEMENT_SET_NO":"999","ECCENTRICITY":"0.00013400","OBJECT_NAME":"STARLINK-1578","TLE_LINE2":"2 46082  53.0566 267.3994 0001340  65.4729 294.6399 15.06395643 98098","REV_AT_EPOCH":"9809","EPHEMERIS_TYPE":"0","ARG_OF_PERICENTER":"65.4729","MEAN_MOTION":"15.06395643","MEAN_MOTION_DDOT":"0.0000000000000","LAUNCH_DATE":"2020-08-07","MEAN_ANOMALY":"294.6399","TIME_SYSTEM":"UTC","TLE_LINE1":"1 46082U 20055BH  22128.36703762  .00001419  00000-0  11417-3 0  9993","DECAY_DATE":null,"BSTAR":"0.00011417000000","OBJECT_TYPE":"PAYLOAD","CENTER_NAME":"EARTH","RA_OF_ASC_NODE":"267.3994","PERIOD":"95.592","MEAN_MOTION_DOT":"0.00001419","RCS_SIZE":"LARGE","GP_ID":"203014438","INCLINATION":"53.0566"},{"PERIAPSIS":"546.157","ELEMENT_SET_NO":"999","OBJECT_NAME":"STARLINK-1579","ECCENTRICITY":"0.00015440","TLE_LINE2":"2 46083  53.0557 266.6268 0001544  73.9660 286.1499 15.06395921 98118","REV_AT_EPOCH":"9811","FILE":"3435746","EPOCH":"2022-05-08T12:52:41.670624","APOAPSIS":"548.295","SEMIMAJOR_AXIS":"6925.361","OBJECT_ID":"2020-055BJ","REF_FRAME":"TEME","SITE":"AFETR","COUNTRY_CODE":"US","MEAN_ELEMENT_THEORY":"SGP4","NORAD_CAT_ID":"46083","CLASSIFICATION_TYPE":"U","CENTER_NAME":"EARTH","PERIOD":"95.592","RA_OF_ASC_NODE":"266.6268","MEAN_MOTION_DOT":"0.00001729","INCLINATION":"53.0557","GP_ID":"203014195","RCS_SIZE":"LARGE","TLE_LINE1":"1 46083U 20055BJ  22128.53659341  .00001729  00000-0  13499-3 0  9992","TIME_SYSTEM":"UTC","DECAY_DATE":null,"OBJECT_TYPE":"PAYLOAD","BSTAR":"0.00013499000000","MEAN_MOTION":"15.06395921","MEAN_ANOMALY":"286.1499","LAUNCH_DATE":"2020-08-07","MEAN_MOTION_DDOT":"0.0000000000000","EPHEMERIS_TYPE":"0","ARG_OF_PERICENTER":"73.9660"},{"SITE":"AFETR","COUNTRY_CODE":"US","MEAN_ELEMENT_THEORY":"SGP4","CLASSIFICATION_TYPE":"U","NORAD_CAT_ID":"46117","OBJECT_NAME":"STARLINK-1585","ECCENTRICITY":"0.00020930","ELEMENT_SET_NO":"999","PERIAPSIS":"545.778","TLE_LINE2":"2 46117  53.0538 107.0794 0002093  44.8225 315.2933 15.06395492 95141","REV_AT_EPOCH":"9514","EPOCH":"2022-05-08T10:29:23.228160","APOAPSIS":"548.677","FILE":"3435746","REF_FRAME":"TEME","SEMIMAJOR_AXIS":"6925.362","OBJECT_ID":"2020-057A","MEAN_MOTION":"15.06395492","LAUNCH_DATE":"2020-08-18","MEAN_ANOMALY":"315.2933","MEAN_MOTION_DDOT":"0.0000000000000","EPHEMERIS_TYPE":"0","ARG_OF_PERICENTER":"44.8225","RA_OF_ASC_NODE":"107.0794","PERIOD":"95.592","MEAN_MOTION_DOT":"-0.00000932","CENTER_NAME":"EARTH","INCLINATION":"53.0538","GP_ID":"203014698","RCS_SIZE":"LARGE","DECAY_DATE":null,"TLE_LINE1":"1 46117U 20057A   22128.43707440 -.00000932  00000-0 -43693-4 0  9992","TIME_SYSTEM":"UTC","OBJECT_TYPE":"PAYLOAD","BSTAR":"-0.00004369300000"},{"LAUNCH_DATE":"2020-08-18","MEAN_MOTION_DDOT":"0.0000000000000","MEAN_ANOMALY":"312.5988","MEAN_MOTION":"15.06398482","ARG_OF_PERICENTER":"47.5161","EPHEMERIS_TYPE":"0","RCS_SIZE":"LARGE","GP_ID":"203013446","INCLINATION":"53.0533","CENTER_NAME":"EARTH","PERIOD":"95.592","MEAN_MOTION_DOT":"0.00001613","RA_OF_ASC_NODE":"127.3339","BSTAR":"0.00012718000000","OBJECT_TYPE":"PAYLOAD","TIME_SYSTEM":"UTC","TLE_LINE1":"1 46118U 20057B   22128.37994065  .00001613  00000-0  12718-3 0  9995","DECAY_DATE":null,"COUNTRY_CODE":"US","SITE":"AFETR","CLASSIFICATION_TYPE":"U","NORAD_CAT_ID":"46118","MEAN_ELEMENT_THEORY":"SGP4","TLE_LINE2":"2 46118  53.0533 127.3339 0001900  47.5161 312.5988 15.06398482 96134","REV_AT_EPOCH":"9613","PERIAPSIS":"545.902","ELEMENT_SET_NO":"999","ECCENTRICITY":"0.00019000","OBJECT_NAME":"STARLINK-1588","OBJECT_ID":"2020-057B","SEMIMAJOR_AXIS":"6925.353","REF_FRAME":"TEME","FILE":"3435746","APOAPSIS":"548.534","EPOCH":"2022-05-08T09:07:06.872160"},{"MEAN_MOTION":"15.06394747","LAUNCH_DATE":"2020-08-18","MEAN_ANOMALY":"314.6402","MEAN_MOTION_DDOT":"0.0000000000000","EPHEMERIS_TYPE":"0","ARG_OF_PERICENTER":"45.4772","CENTER_NAME":"EARTH","PERIOD":"95.592","RA_OF_ASC_NODE":"127.3982","MEAN_MOTION_DOT":"0.00000548","RCS_SIZE":"LARGE","GP_ID":"203013190","INCLINATION":"53.0534","TIME_SYSTEM":"UTC","TLE_LINE1":"1 46119U 20057C   22128.36888464  .00000548  00000-0  55697-4 0  9990","DECAY_DATE":null,"OBJECT_TYPE":"PAYLOAD","BSTAR":"0.00005569700000","COUNTRY_CODE":"US","SITE":"AFETR","MEAN_ELEMENT_THEORY":"SGP4","NORAD_CAT_ID":"46119","CLASSIFICATION_TYPE":"U","PERIAPSIS":"545.658","ELEMENT_SET_NO":"999","ECCENTRICITY":"0.00022690","OBJECT_NAME":"STARLINK-1593","TLE_LINE2":"2 46119  53.0534 127.3982 0002269  45.4772 314.6402 15.06394747 96116","REV_AT_EPOCH":"9611","FILE":"3435746","APOAPSIS":"548.801","EPOCH":"2022-05-08T08:51:11.632896","OBJECT_ID":"2020-057C","SEMIMAJOR_AXIS":"6925.365","REF_FRAME":"TEME"},{"BSTAR":"0.00011948000000","OBJECT_TYPE":"PAYLOAD","DECAY_DATE":null,"TIME_SYSTEM":"UTC","TLE_LINE1":"1 46120U 20057D   22128.68588376  .00001498  00000-0  11948-3 0  9991","RCS_SIZE":"LARGE","INCLINATION":"53.0542","GP_ID":"203019873","MEAN_MOTION_DOT":"0.00001498","PERIOD":"95.593","RA_OF_ASC_NODE":"125.9728","CENTER_NAME":"EARTH","ARG_OF_PERICENTER":"40.7346","EPHEMERIS_TYPE":"0","MEAN_MOTION_DDOT":"0.0000000000000","LAUNCH_DATE":"2020-08-18","MEAN_ANOMALY":"319.3802","MEAN_MOTION":"15.06393451","REF_FRAME":"TEME","OBJECT_ID":"2020-057D","SEMIMAJOR_AXIS":"6925.369","APOAPSIS":"548.711","EPOCH":"2022-05-08T16:27:40.356864","FILE":"3435778","TLE_LINE2":"2 46120  53.0542 125.9728 0002133  40.7346 319.3802 15.06393451 95569","REV_AT_EPOCH":"9556","ECCENTRICITY":"0.00021330","OBJECT_NAME":"STARLINK-1601","PERIAPSIS":"545.756","ELEMENT_SET_NO":"999","NORAD_CAT_ID":"46120","CLASSIFICATION_TYPE":"U","MEAN_ELEMENT_THEORY":"SGP4","COUNTRY_CODE":"US","SITE":"AFETR"},{"COUNTRY_CODE":"US","SITE":"AFETR","MEAN_ELEMENT_THEORY":"SGP4","CLASSIFICATION_TYPE":"U","NORAD_CAT_ID":"46121","PERIAPSIS":"545.822","ELEMENT_SET_NO":"999","ECCENTRICITY":"0.00020630","OBJECT_NAME":"STARLINK-1602","TLE_LINE2":"2 46121  53.0547 107.0105 0002063  48.9767 311.1400 15.06387929 95808","REV_AT_EPOCH":"9580","FILE":"3435177","EPOCH":"2022-05-08T10:55:55.761600","APOAPSIS":"548.679","OBJECT_ID":"2020-057E","SEMIMAJOR_AXIS":"6925.386","REF_FRAME":"TEME","MEAN_MOTION":"15.06387929","LAUNCH_DATE":"2020-08-18","MEAN_MOTION_DDOT":"0.0000000000000","MEAN_ANOMALY":"311.1400","EPHEMERIS_TYPE":"0","ARG_OF_PERICENTER":"48.9767","CENTER_NAME":"EARTH","RA_OF_ASC_NODE":"107.0105","PERIOD":"95.593","MEAN_MOTION_DOT":"0.00000122","RCS_SIZE":"LARGE","GP_ID":"202979804","INCLINATION":"53.0547","TIME_SYSTEM":"UTC","TLE_LINE1":"1 46121U 20057E   22128.45550650  .00000122  00000-0  27142-4 0  9998","DECAY_DATE":null,"BSTAR":"0.00002714200000","OBJECT_TYPE":"PAYLOAD"},{"RA_OF_ASC_NODE":"87.8428","PERIOD":"95.592","MEAN_MOTION_DOT":"-0.00000800","CENTER_NAME":"EARTH","GP_ID":"203012947","INCLINATION":"53.0549","RCS_SIZE":"LARGE","DECAY_DATE":null,"TLE_LINE1":"1 46122U 20057F   22128.26566935 -.00000800  00000-0 -34772-4 0  9993","TIME_SYSTEM":"UTC","OBJECT_TYPE":"PAYLOAD","BSTAR":"-0.00003477200000","MEAN_MOTION":"15.06407342","MEAN_ANOMALY":"311.6665","LAUNCH_DATE":"2020-08-18","MEAN_MOTION_DDOT":"0.0000000000000","EPHEMERIS_TYPE":"0","ARG_OF_PERICENTER":"48.4481","OBJECT_NAME":"STARLINK-1604","ECCENTRICITY":"0.00018310","ELEMENT_SET_NO":"999","PERIAPSIS":"545.923","REV_AT_EPOCH":"9665","TLE_LINE2":"2 46122  53.0549  87.8428 0001831  48.4481 311.6665 15.06407342 96658","APOAPSIS":"548.459","EPOCH":"2022-05-08T06:22:33.831840","FILE":"3435746","REF_FRAME":"TEME","SEMIMAJOR_AXIS":"6925.326","OBJECT_ID":"2020-057F","SITE":"AFETR","COUNTRY_CODE":"US","MEAN_ELEMENT_THEORY":"SGP4","NORAD_CAT_ID":"46122","CLASSIFICATION_TYPE":"U"},{"SEMIMAJOR_AXIS":"6925.354","OBJECT_ID":"2020-057G","REF_FRAME":"TEME","FILE":"3435779","EPOCH":"2022-05-08T13:59:02.134176","APOAPSIS":"548.804","REV_AT_EPOCH":"9610","TLE_LINE2":"2 46123  53.0558  86.4336 0002289  43.8556 316.2615 15.06398174 96100","ELEMENT_SET_NO":"999","PERIAPSIS":"545.634","OBJECT_NAME":"STARLINK-1605","ECCENTRICITY":"0.00022890","NORAD_CAT_ID":"46123","CLASSIFICATION_TYPE":"U","MEAN_ELEMENT_THEORY":"SGP4","SITE":"AFETR","COUNTRY_CODE":"US","BSTAR":"0.00008384000000","OBJECT_TYPE":"PAYLOAD","TLE_LINE1":"1 46123U 20057G   22128.58266359  .00000967  00000-0  83840-4 0  9998","TIME_SYSTEM":"UTC","DECAY_DATE":null,"GP_ID":"203019690","INCLINATION":"53.0558","RCS_SIZE":"LARGE","CENTER_NAME":"EARTH","PERIOD":"95.592","RA_OF_ASC_NODE":"86.4336","MEAN_MOTION_DOT":"0.00000967","ARG_OF_PERICENTER":"43.8556","EPHEMERIS_TYPE":"0","LAUNCH_DATE":"2020-08-18","MEAN_MOTION_DDOT":"0.0000000000000","MEAN_ANOMALY":"316.2615","MEAN_MOTION":"15.06398174"},{"MEAN_MOTION":"15.06392188","MEAN_ANOMALY":"306.9264","LAUNCH_DATE":"2020-08-18","MEAN_MOTION_DDOT":"0.0000000000000","EPHEMERIS_TYPE":"0","ARG_OF_PERICENTER":"53.1894","PERIOD":"95.593","RA_OF_ASC_NODE":"87.5929","MEAN_MOTION_DOT":"0.00000011","CENTER_NAME":"EARTH","RCS_SIZE":"LARGE","INCLINATION":"53.0539","GP_ID":"203013943","DECAY_DATE":null,"TIME_SYSTEM":"UTC","TLE_LINE1":"1 46124U 20057H   22128.32465288  .00000011  00000-0  19675-4 0  9998","BSTAR":"0.00001967500000","OBJECT_TYPE":"PAYLOAD","COUNTRY_CODE":"US","SITE":"AFETR","MEAN_ELEMENT_THEORY":"SGP4","NORAD_CAT_ID":"46124","CLASSIFICATION_TYPE":"U","ECCENTRICITY":"0.00018450","OBJECT_NAME":"STARLINK-1614","ELEMENT_SET_NO":"999","PERIAPSIS":"545.960","REV_AT_EPOCH":"9541","TLE_LINE2":"2 46124  53.0539  87.5929 0001845  53.1894 306.9264 15.06392188 95414","EPOCH":"2022-05-08T07:47:30.008832","APOAPSIS":"548.515","FILE":"3435746","REF_FRAME":"TEME","OBJECT_ID":"2020-057H","SEMIMAJOR_AXIS":"6925.373"}];
